STARLINK-32698
1 62312U 24239M   26090.72648554  .00028582  00000+0  97316-3 0  9995
2 62312  53.1596  91.8562 0001590  88.6414 271.4769 15.30208993 72759
STARLINK-32634
1 62313U 24239N   26090.68055426  .00025039  00000+0  85437-3 0  9996
2 62313  53.1608  78.7888 0001599  88.0188 272.0996 15.30211249 72937
STARLINK-32651
1 62314U 24239P   26090.69165936  .00017932  00000+0  61602-3 0  9997
2 62314  53.1561  91.6397 0001319  90.7339 269.3813 15.30204202 72751
STARLINK-32627
1 62315U 24239Q   26090.72436656  .00023732  00000+0  81067-3 0  9994
2 62315  53.1594  91.7981 0000964  81.0621 279.0488 15.30206391 72757
STARLINK-32596
1 62316U 24239R   26090.71698604  .00031126  00000+0  10581-2 0  9995
2 62316  53.1601  91.7978 0001565  92.1209 267.9971 15.30215197 72753
STARLINK-32519
1 62317U 24239S   26090.67000190  .00025656  00000+0  87540-3 0  9999
2 62317  53.1592  78.7185 0001451  75.6522 284.4640 15.30198966 72937
STARLINK-32527
1 62319U 24239U   26090.40663135  .00027844  00000+0  94853-3 0  9992
2 62319  53.1588  79.9228 0001463  60.7658 299.3489 15.30206088 72899
STARLINK-32481
1 62320U 24239V   26090.67422258  .00018483  00000+0  63445-3 0  9994
2 62320  53.1594  78.7473 0001370  83.0071 277.1085 15.30208590 72932
STARLINK-32645
1 62321U 24239W   26090.67844397  .00018448  00000+0  63346-3 0  9998
2 62321  53.1603  78.7756 0001314  85.0255 275.0895 15.30199195 72938
STARLINK-32654
1 62322U 24239X   26090.29555116  .00023574  00000+0  80486-3 0  9995
2 62322  53.1571  93.4307 0001132  73.7689 286.3436 15.30227352 72698
STARLINK-32702
1 62432U 24251A   26090.79836271  .00024480  00000+0  83657-3 0  9990
2 62432  53.1582 229.7493 0001210  76.2889 283.8247 15.30175164 71378
STARLINK-32712
1 62433U 24251B   26090.68103843  .00034056  00000+0  11569-2 0  9993
2 62433  53.1570 233.2766 0000900 305.8428  54.2488 15.30193623 71315
STARLINK-32674
1 62434U 24251C   26090.77367343  .00032116  00000+0  10925-2 0  9991
2 62434  53.1593 232.4381 0000565  93.1496 266.9569 15.30177599 71332
STARLINK-32711
1 62435U 24251D   26090.80849611  .00032740  00000+0  11120-2 0  9990
2 62435  53.1598 232.6536 0000702 306.7682  53.3254 15.30218132 71333
STARLINK-32697
1 62436U 24251E   26090.79583595  .00038694  00000+0  13109-2 0  9998
2 62436  53.1599 232.5749 0000191  72.4817 287.6204 15.30221732 71336
STARLINK-32693
1 62437U 24251F   26090.68880875  .00051420  00000+0  17329-2 0  9998
2 62437  53.1586 230.4161 0000707 101.5615 258.5465 15.30262430 71359
STARLINK-32721
1 62438U 24251G   26090.85376455  .00014602  00000+0  50417-3 0  9999
2 62438  53.1592 232.2202 0001139  88.9167 271.1964 15.30198817 71287
STARLINK-32709
1 62439U 24251H   26090.11009056  .00041940  00000+0  14199-2 0  9990
2 62439  53.1584 236.1155 0001439  89.4020 270.7145 15.30204997 71223
STARLINK-32689
1 62440U 24251J   26090.37758234  .00034215  00000+0  11613-2 0  9994
2 62440  53.1586 234.2280 0001389  65.6321 294.4825 15.30220704 71276
STARLINK-32724
1 62441U 24251K   26090.79056104  .00034052  00000+0  11565-2 0  9993
2 62441  53.1604 232.5409 0000709  36.6130 323.4919 15.30202898 71173
STARLINK-32291
1 62442U 24251L   26090.66837041  .00019223  00000+0  66001-3 0  9996
2 62442  53.1584 233.1968 0001068  84.3511 275.7611 15.30173711 71001
STARLINK-32736
1 62443U 24251M   26090.80639041  .00032976  00000+0  11211-2 0  9995
2 62443  53.1585 232.6402 0001049  67.1560 292.9552 15.30185738 71177
STARLINK-32737
1 62444U 24251N   26090.78475504  .00030565  00000+0  10396-2 0  9990
2 62444  53.1594 230.3716 0000723  95.7194 264.3889 15.30207071 71361
STARLINK-32683
1 62445U 24251P   26090.69368520  .00035960  00000+0  12185-2 0  9992
2 62445  53.1577 233.3532 0001073  75.9826 284.1294 15.30249203 71311
STARLINK-32726
1 62446U 24251Q   26090.78950382  .00032123  00000+0  10918-2 0  9996
2 62446  53.1594 232.5297 0000738  95.6914 264.4171 15.30205558 71022
STARLINK-32730
1 62447U 24251R   26090.65151116  .00035276  00000+0  11982-2 0  9995
2 62447  53.1579 233.0888 0001581 100.9683 259.1496 15.30180608 71319
STARLINK-32719
1 62448U 24251S   26090.38715184  .00037858  00000+0  12826-2 0  9993
2 62448  53.1592 234.8510 0002048  77.0304 283.0925 15.30230465 71094
STARLINK-32723
1 62449U 24251T   26090.79161558  .00031385  00000+0  10671-2 0  9994
2 62449  53.1598 232.5444 0000751  94.4043 265.7043 15.30204840 71179
STARLINK-32722
1 62450U 24251U   26090.78633460  .00030464  00000+0  10363-2 0  9996
2 62450  53.1604 232.5087 0000170 261.6810  98.4171 15.30205674 70962
STARLINK-32720
1 62451U 24251V   26090.68632036  .00041038  00000+0  13896-2 0  9997
2 62451  53.1571 233.3126 0000875  83.1829 276.9271 15.30210100 70940
STARLINK-32656
1 62452U 24251W   26090.83170729  .00026116  00000+0  89029-3 0  9993
2 62452  53.1580 232.7957 0001483 214.5515 145.5390 15.30217519 71174
STARLINK-32690
1 62453U 24251X   26090.78317197  .00022549  00000+0  77103-3 0  9996
2 62453  53.1591 232.4909 0000734  69.9583 290.1497 15.30204210 70950
STARLINK-33596
1 62758U 25015A   26090.35076122  .00035653  00000+0  12102-2 0  9993
2 62758  53.1596 222.1193 0001320  75.0630 285.0517 15.30197659 67722
STARLINK-33589
1 62759U 25015B   26090.34865013  .00027302  00000+0  93003-3 0  9990
2 62759  53.1588 222.1085 0000958  74.6010 285.5097 15.30218159 67038
STARLINK-33575
1 62760U 25015C   26090.65834872  .00028325  00000+0  96533-3 0  9992
2 62760  53.1562 220.4565 0000709 118.0168 242.0905 15.30182692 67080
STARLINK-33584
1 62761U 25015D   26090.64462492  .00039186  00000+0  13292-2 0  9994
2 62761  53.1580 220.3994 0000959  89.3792 270.7318 15.30175407 67842
STARLINK-33577
1 62762U 25015E   26090.75520289  .00038760  00000+0  13139-2 0  9993
2 62762  53.1611 219.6641 0000792  14.2563 345.8460 15.30200412 67865
STARLINK-33597
1 62763U 25015F   26090.61518842  .00003528  00000+0  13122-3 0  9998
2 62763  53.1605 220.9225 0001340  95.0356 265.0798 15.30193423 67836
STARLINK-33579
1 62764U 25015G   26090.09677858  .00037701  00000+0  12778-2 0  9999
2 62764  53.1599 222.6677 0001217  92.7112 267.4028 15.30220127 67762
STARLINK-33592
1 62765U 25015H   26090.66150991  .00044721  00000+0  15116-2 0  9996
2 62765  53.1580 220.5004 0001876  86.4013 273.7203 15.30228801 67712
STARLINK-33595
1 62766U 25015J   26090.76681219  .00050864  00000+0  17154-2 0  9999
2 62766  53.1589 219.7386 0000680 336.7715  23.3254 15.30243779 67869
STARLINK-33572
1 62767U 25015K   26090.65201019  .00006727  00000+0  23911-3 0  9992
2 62767  53.1577 220.4442 0000610  15.2807 344.8212 15.30188497 67784
STARLINK-33601
1 62768U 25015L   26090.77628120  .00072819  00000+0  24405-2 0  9995
2 62768  53.1589 219.8013 0001391 279.6867  80.3977 15.30283083 67869
STARLINK-33569
1 62769U 25015M   26090.75942206  .00040357  00000+0  13662-2 0  9993
2 62769  53.1598 219.6936 0000202  32.5929 327.5085 15.30226627 67864
STARLINK-33594
1 62770U 25015N   26090.75203690  .00019714  00000+0  67596-3 0  9991
2 62770  53.1605 219.6455 0000795  82.9271 277.1820 15.30200432 67860
STARLINK-33598
1 62771U 25015P   26090.36964477  .00028842  00000+0  98244-3 0  9992
2 62771  53.1593 221.5214 0001424  94.4617 265.6546 15.30190002 67806
STARLINK-33600
1 62772U 25015Q   26090.34442962  .00027471  00000+0  93556-3 0  9999
2 62772  53.1598 222.0775 0001762  79.7316 280.3883 15.30222346 67790
STARLINK-33567
1 62773U 25015R   26090.64250640  .00016144  00000+0  55585-3 0  9998
2 62773  53.1588 220.3805 0000765  65.6622 294.4458 15.30209536 67847
STARLINK-33574
1 62774U 25015S   26090.76575854  .00032974  00000+0  11196-2 0  9997
2 62774  53.1601 219.7319 0001185  63.2910 296.8212 15.30226082 67587
STARLINK-33576
1 62775U 25015T   26090.79108245  .00029058  00000+0  99016-3 0  9994
2 62775  53.1577 219.8920 0001030 105.7655 254.3459 15.30174088 67801
STARLINK-33570
1 62776U 25015U   26089.52371858  .00014057  00000+0  48596-3 0  9996
2 62776  53.1592 225.4885 0002108   0.4523 359.6480 15.30192511 67617
STARLINK-33591
1 62777U 25015V   26090.78793309  .00050002  00000+0  16897-2 0  9994
2 62777  53.1577 219.8688 0001283  58.2394 301.8732 15.30187515 67863
STARLINK-33573
1 62778U 25015W   26090.75837000  .00051259  00000+0  17310-2 0  9995
2 62778  53.1599 219.6811 0000686  64.8329 295.2743 15.30198122 67865
STARLINK-33568
1 62779U 25015X   26090.78159772  .00037230  00000+0  12624-2 0  9998
2 62779  53.1575 219.8303 0001646 100.9063 259.2123 15.30210731 67708
STARLINK-33593
1 62780U 25015Y   26089.52160455  .00018196  00000+0  62504-3 0  9993
2 62780  53.1585 225.4709 0001022  83.6531 276.4586 15.30195927 67678
STARLINK-33588
1 62781U 25015Z   26090.78315562  .00031268  00000+0  10631-2 0  9993
2 62781  53.1567 217.6465 0000531  89.3904 270.7157 15.30209127 67895
STARLINK-33585
1 62782U 25015AA  26090.35698044  .00035828  00000+0  12149-2 0  9998
2 62782  53.1594 221.4438 0001780  97.3496 262.7707 15.30227281 67524
STARLINK-33581
1 62784U 25015AC  26090.34548465  .00029648  00000+0  10085-2 0  9990
2 62784  53.1593 222.0816 0001412  86.9698 273.1465 15.30219820 67798
STARLINK-32883
1 62806U 25018A   26090.59665464  .00038889  00000+0  13173-2 0  9992
2 62806  53.1589 207.7578 0001848  94.4200 265.7011 15.30223705 67442
STARLINK-32886
1 62807U 25018B   26090.72623270  .00043006  00000+0  14545-2 0  9998
2 62807  53.1599 207.1422 0001846  77.1857 282.9350 15.30227120 66553
STARLINK-32848
1 62808U 25018C   26090.60087377  .00046338  00000+0  15656-2 0  9993
2 62808  53.1596 207.7812 0000657  78.7847 281.3227 15.30227023 66520
STARLINK-32787
1 62809U 25018D   26090.59348718  .00022000  00000+0  75330-3 0  9997
2 62809  53.1601 207.7362 0000429 111.1712 248.9335 15.30174226 66523
STARLINK-32851
1 62810U 25018E   26090.33752815  .00021120  00000+0  72394-3 0  9997
2 62810  53.1597 208.9833 0000798  38.4471 321.6587 15.30165879 66484
STARLINK-32847
1 62811U 25018F   26089.60109678  .00007261  00000+0  25738-3 0  9999
2 62811  53.1597 212.2056 0001378 102.6716 257.4439 15.30157953 66375
